[{"OBJECT_NAME":"ONEWEB-0343","OBJECT_ID":"2021-083Z","EPOCH":"2026-03-09T19:50:22.350048","MEAN_MOTION":13.1868667,"ECCENTRICITY":0.00023334,"INCLINATION":87.9254,"RA_OF_ASC_NODE":355.1909,"ARG_OF_PERICENTER":81.1735,"MEAN_ANOMALY":278.9661,"EPHEMERIS_TYPE":0,"CLASSIFICATION_TYPE":"U","NORAD_CAT_ID":49209,"ELEMENT_SET_NO":999,"REV_AT_EPOCH":21694,"BSTAR":-0.0001021234,"MEAN_MOTION_DOT":-2.7e-7,"MEAN_MOTION_DDOT":0},{"OBJECT_NAME":"SL-14 DEB","OBJECT_ID":"1991-056AV","EPOCH":"2026-03-09T13:43:49.650816","MEAN_MOTION":13.05278101,"ECCENTRICITY":0.0183518,"INCLINATION":82.5867,"RA_OF_ASC_NODE":273.1914,"ARG_OF_PERICENTER":27.3818,"MEAN_ANOMALY":333.6825,"EPHEMERIS_TYPE":0,"CLASSIFICATION_TYPE":"U","NORAD_CAT_ID":45307,"ELEMENT_SET_NO":999,"REV_AT_EPOCH":28548,"BSTAR":0.014449,"MEAN_MOTION_DOT":5.096e-5,"MEAN_MOTION_DDOT":0}]
